CCSDS_OMM_VERS,COMMENT,CREATION_DATE,ORIGINATOR,OBJECT_NAME,OBJECT_ID,CENTER_NAME,REF_FRAME,TIME_SYSTEM,MEAN_ELEMENT_THEORY,EPOCH,MEAN_MOTION,ECCENTRICITY,INCLINATION,RA_OF_ASC_NODE,ARG_OF_PERICENTER,MEAN_ANOMALY,EPHEMERIS_TYPE,CLASSIFICATION_TYPE,NORAD_CAT_ID,ELEMENT_SET_NO,REV_AT_EPOCH,BSTAR,MEAN_MOTION_DOT,MEAN_MOTION_DDOT,SEMIMAJOR_AXIS,PERIOD,APOAPSIS,PERIAPSIS,OBJECT_TYPE,RCS_SIZE,COUNTRY_CODE,LAUNCH_DATE,SITE,DECAY_DATE,FILE,GP_ID,TLE_LINE0,TLE_LINE1,TLE_LINE2
2,GENERATED VIA SPACE-TRACK.ORG API,2017-01-30T19:32:16,18 SPCS,GALILEO-FM3,2012-055A,EARTH,TEME,UTC,SGP4,2017-01-29T19:44:07.631520,1.70473638,0.0002204,54.9166,195.8623,202.3461,157.6051,0,U,38857,999,2677,0.0,6.4e-07,0,29600.361,844.705,23228.75,23215.703,PAYLOAD,LARGE,ESA,2012-10-12,FRGUI,,2146032,109656454,0 GALILEO-FM3,1 38857U 12055A   17029.82231055 +.00000064 +00000-0 +00000-0 0  9999,2 38857 054.9166 195.8623 0002204 202.3461 157.6051 01.70473638026770
2,GENERATED VIA SPACE-TRACK.ORG API,2017-02-01T19:53:31,18 SPCS,GALILEO-FM3,2012-055A,EARTH,TEME,UTC,SGP4,2017-01-30T23:53:29.229216,1.70473612,0.0002213,54.9168,195.8299,202.3379,157.6128,0,U,38857,999,2678,0.0,6.3e-07,0,29600.364,844.705,23228.78,23215.679,PAYLOAD,LARGE,ESA,2012-10-12,FRGUI,,2146636,109691394,0 GALILEO-FM3,1 38857U 12055A   17030.99547719 +.00000063 +00000-0 +00000-0 0  9995,2 38857 054.9168 195.8299 0002213 202.3379 157.6128 01.70473612026787
2,GENERATED VIA SPACE-TRACK.ORG API,2017-02-03T16:23:28,18 SPCS,GALILEO-FM3,2012-055A,EARTH,TEME,UTC,SGP4,2017-02-02T08:12:13.446720,1.70473579,0.0002238,54.9167,195.7648,202.973,156.9831,0,U,38857,999,2683,0.0,6.6e-07,0,29600.368,844.705,23228.858,23215.609,PAYLOAD,LARGE,ESA,2012-10-12,FRGUI,,2147422,109718330,0 GALILEO-FM3,1 38857U 12055A   17033.34182230 +.00000066 +00000-0 +00000-0 0  9993,2 38857 054.9167 195.7648 0002238 202.9730 156.9831 01.70473579026838
2,GENERATED VIA SPACE-TRACK.ORG API,2017-02-07T17:11:47,18 SPCS,GALILEO-FM3,2012-055A,EARTH,TEME,UTC,SGP4,2017-02-06T10:44:58.756992,1.70473571,0.0002307,54.9163,195.6509,205.0992,154.8516,0,U,38857,999,2690,0.0,4.5e-07,0,29600.369,844.705,23229.063,23215.405,PAYLOAD,LARGE,ESA,2012-10-12,FRGUI,,2148692,109779402,0 GALILEO-FM3,1 38857U 12055A   17037.44790228 +.00000045 +00000-0 +00000-0 0  9997,2 38857 054.9163 195.6509 0002307 205.0992 154.8516 01.70473571026907
2,GENERATED VIA SPACE-TRACK.ORG API,2017-02-11T14:18:39,18 SPCS,GALILEO-FM3,2012-055A,EARTH,TEME,UTC,SGP4,2017-02-11T03:22:21.588096,1.7047365,0.0002362,54.9161,195.5208,207.1136,152.808,0,U,38857,999,2698,0.0,8e-08,0,29600.36,844.705,23229.217,23215.233,PAYLOAD,LARGE,ESA,2012-10-12,FRGUI,,2150200,109838045,0 GALILEO-FM3,1 38857U 12055A   17042.14052764  .00000008  00000-0  00000+0 0  9994,2 38857  54.9161 195.5208 0002362 207.1136 152.8080  1.70473650 26984
2,GENERATED VIA SPACE-TRACK.ORG API,2017-02-16T14:45:28,18 SPCS,GALILEO-FM3,2012-055A,EARTH,TEME,UTC,SGP4,2017-02-16T10:04:31.450080,1.70473745,0.0002521,54.9145,195.3745,210.5767,149.3596,0,U,38857,999,2707,0.0,2.7e-07,0,29600.349,844.704,23229.676,23214.752,PAYLOAD,LARGE,ESA,2012-10-12,FRGUI,,2152546,109932229,0 GALILEO-FM3,1 38857U 12055A   17047.41980845  .00000027  00000-0  00000+0 0  9990,2 38857  54.9145 195.3745 0002521 210.5767 149.3596  1.70473745 27074
2,GENERATED VIA SPACE-TRACK.ORG API,2017-02-19T17:07:39,18 SPCS,GALILEO-FM3,2012-055A,EARTH,TEME,UTC,SGP4,2017-02-18T04:18:34.708032,1.70473748,0.0002557,54.9144,195.3257,211.5383,148.4028,0,U,38857,999,2709,0.0,3e-07,0,29600.349,844.704,23229.783,23214.645,PAYLOAD,LARGE,ESA,2012-10-12,FRGUI,,2154049,109991451,0 GALILEO-FM3,1 38857U 12055A   17049.17956838 +.00000030 +00000-0 +00000-0 0  9995,2 38857 054.9144 195.3257 0002557 211.5383 148.4028 01.70473748027090
2,GENERATED VIA SPACE-TRACK.ORG API,2017-02-20T15:57:05,18 SPCS,GALILEO-FM3,2012-055A,EARTH,TEME,UTC,SGP4,2017-02-18T04:18:34.708896,1.70473746,0.0002565,54.9145,195.3258,211.7114,148.2297,0,U,38857,999,2709,0.0,3e-07,0,29600.349,844.704,23229.806,23214.621,PAYLOAD,LARGE,ESA,2012-10-12,FRGUI,,2154532,110010804,0 GALILEO-FM3,1 38857U 12055A   17049.17956839 +.00000030 +00000-0 +00000-0 0  9996,2 38857 054.9145 195.3258 0002565 211.7114 148.2297 01.70473746027099
2,GENERATED VIA SPACE-TRACK.ORG API,2017-02-22T14:33:33,18 SPCS,GALILEO-FM3,2012-055A,EARTH,TEME,UTC,SGP4,2017-02-22T06:51:19.633824,1.70473691,0.0002608,54.9149,195.2121,212.3473,147.5869,0,U,38857,999,2717,0.0,2.6e-07,0,29600.355,844.705,23229.94,23214.501,PAYLOAD,LARGE,ESA,2012-10-12,FRGUI,,2155427,110038232,0 GALILEO-FM3,1 38857U 12055A   17053.28564391  .00000026  00000-0  00000+0 0  9995,2 38857  54.9149 195.2121 0002608 212.3473 147.5869  1.70473691 27179
2,GENERATED VIA SPACE-TRACK.ORG API,2017-02-25T16:24:01,18 SPCS,GALILEO-FM3,2012-055A,EARTH,TEME,UTC,SGP4,2017-02-23T11:00:40.599936,1.70473658,0.000266,54.9147,195.1796,213.3013,146.6276,0,U,38857,999,2718,0.0,2.3e-07,0,29600.359,844.705,23230.098,23214.35,PAYLOAD,LARGE,ESA,2012-10-12,FRGUI,,2157231,110106225,0 GALILEO-FM3,1 38857U 12055A   17054.45880324 +.00000023 +00000-0 +00000-0 0  9990,2 38857 054.9147 195.1796 0002660 213.3013 146.6276 01.70473658027189
2,GENERATED VIA SPACE-TRACK.ORG API,2017-02-26T14:33:41,18 SPCS,GALILEO-FM3,2012-055A,EARTH,TEME,UTC,SGP4,2017-02-25T19:19:23.231136,1.70473605,0.0002724,54.9144,195.1145,214.6271,145.296,0,U,38857,999,2723,0.0,1.8e-07,0,29600.365,844.705,23230.293,23214.167,PAYLOAD,LARGE,ESA,2012-10-12,FRGUI,,2157667,110114061,0 GALILEO-FM3,1 38857U 12055A   17056.80512999  .00000018  00000-0  00000+0 0  9994,2 38857  54.9144 195.1145 0002724 214.6271 145.2960  1.70473605 27238
2,GENERATED VIA SPACE-TRACK.ORG API,2017-02-28T14:29:26,18 SPCS,GALILEO-FM3,2012-055A,EARTH,TEME,UTC,SGP4,2017-02-28T03:38:07.526400,1.70473566,0.000276,54.9142,195.0496,215.1363,144.7926,0,U,38857,999,2727,0.0,1.8e-07,0,29600.37,844.705,23230.404,23214.065,PAYLOAD,LARGE,ESA,2012-10-12,FRGUI,,2158711,110152035,0 GALILEO-FM3,1 38857U 12055A   17059.15147600  .00000018  00000-0  00000+0 0  9998,2 38857  54.9142 195.0496 0002760 215.1363 144.7926  1.70473566 27278
2,GENERATED VIA SPACE-TRACK.ORG API,2017-03-03T06:33:08,18 SPCS,GALILEO-FM3,2012-055A,EARTH,TEME,UTC,SGP4,2017-03-03T02:01:33.818016,1.70473546,0.0002801,54.914,194.9683,216.0129,143.9301,0,U,38857,999,2732,0.0,2e-07,0,29600.372,844.705,23230.528,23213.946,PAYLOAD,LARGE,ESA,2012-10-12,FRGUI,,2160012,110196445,0 GALILEO-FM3,1 38857U 12055A   17062.08441919  .00000020  00000-0  00000+0 0  9997,2 38857  54.9140 194.9683 0002801 216.0129 143.9301  1.70473546 27320
2,GENERATED VIA SPACE-TRACK.ORG API,2017-03-05T14:36:16,18 SPCS,GALILEO-FM3,2012-055A,EARTH,TEME,UTC,SGP4,2017-03-05T10:20:17.218176,1.70473541,0.0002873,54.9136,194.9033,217.4296,142.5127,0,U,38857,999,2736,0.0,6e-08,0,29600.373,844.705,23230.742,23213.734,PAYLOAD,LARGE,ESA,2012-10-12,FRGUI,,2161055,110236865,0 GALILEO-FM3,1 38857U 12055A   17064.43075484  .00000006  00000-0  00000+0 0  9992,2 38857  54.9136 194.9033 0002873 217.4296 142.5127  1.70473541 27363
2,GENERATED VIA SPACE-TRACK.ORG API,2017-03-08T18:03:04,18 SPCS,GALILEO-FM3,2012-055A,EARTH,TEME,UTC,SGP4,2017-03-06T14:29:38.142816,1.7047356,0.0002915,54.9134,194.8709,218.4167,141.5201,0,U,38857,999,2737,0.0,-7e-08,0,29600.37,844.705,23230.864,23213.607,PAYLOAD,LARGE,ESA,2012-10-12,FRGUI,,2162494,110302563,0 GALILEO-FM3,1 38857U 12055A   17065.60391369 -.00000007 +00000-0 +00000-0 0  9998,2 38857 054.9134 194.8709 0002915 218.4167 141.5201 01.70473560027379
2,GENERATED VIA SPACE-TRACK.ORG API,2017-03-08T14:16:45,18 SPCS,GALILEO-FM3,2012-055A,EARTH,TEME,UTC,SGP4,2017-03-08T08:43:39.442944,1.70473572,0.0002981,54.9136,194.8221,219.6677,140.2591,0,U,38857,999,2741,0.0,-2.4e-07,0,29600.369,844.705,23231.058,23213.41,PAYLOAD,LARGE,ESA,2012-10-12,FRGUI,,2162342,110291086,0 GALILEO-FM3,1 38857U 12055A   17067.36365096 -.00000024  00000-0  00000+0 0  9999,2 38857  54.9136 194.8221 0002981 219.6677 140.2591  1.70473572 27418
2,GENERATED VIA SPACE-TRACK.ORG API,2017-03-10T18:17:55,18 SPCS,GALILEO-FM3,2012-055A,EARTH,TEME,UTC,SGP4,2017-03-09T12:53:00.594816,1.70473596,0.0003006,54.9135,194.7897,220.2545,139.6682,0,U,38857,999,2742,0.0,-3.1e-07,0,29600.366,844.705,23231.129,23213.333,PAYLOAD,LARGE,ESA,2012-10-12,FRGUI,,2163424,110338543,0 GALILEO-FM3,1 38857U 12055A   17068.53681244 -.00000031 +00000-0 +00000-0 0  9994,2 38857 054.9135 194.7897 0003006 220.2545 139.6682 01.70473596027426
2,GENERATED VIA SPACE-TRACK.ORG API,2017-03-11T16:37:14,18 SPCS,GALILEO-FM3,2012-055A,EARTH,TEME,UTC,SGP4,2017-03-10T02:57:41.321952,1.70473626,0.0003032,54.9133,194.7735,220.7382,139.1835,0,U,38857,999,2743,0.0,-3.2e-07,0,29600.363,844.705,23231.203,23213.253,PAYLOAD,LARGE,ESA,2012-10-12,FRGUI,,2163891,110356759,0 GALILEO-FM3,1 38857U 12055A   17069.12339493 -.00000032 +00000-0 +00000-0 0  9997,2 38857 054.9133 194.7735 0003032 220.7382 139.1835 01.70473626027438
2,GENERATED VIA SPACE-TRACK.ORG API,2017-03-14T16:00:04,18 SPCS,GALILEO-FM3,2012-055A,EARTH,TEME,UTC,SGP4,2017-03-14T05:30:29.804832,1.70473716,0.0003138,54.9129,194.66,222.4688,137.4703,0,U,38857,999,2751,0.0,-1.6e-07,0,29600.352,844.704,23231.506,23212.929,PAYLOAD,LARGE,ESA,2012-10-12,FRGUI,,2165061,110402290,0 GALILEO-FM3,1 38857U 12055A   17073.22951163 -.00000016  00000-0  00000+0 0  9998,2 38857  54.9129 194.6600 0003138 222.4688 137.4703  1.70473716 27512
2,GENERATED VIA SPACE-TRACK.ORG API,2017-03-16T16:03:31,18 SPCS,GALILEO-FM3,2012-055A,EARTH,TEME,UTC,SGP4,2017-03-15T09:39:52.611264,1.70473739,0.0003181,54.9127,194.6276,223.1904,136.7564,0,U,38857,999,2752,0.0,-1.1e-07,0,29600.35,844.704,23231.631,23212.799,PAYLOAD,LARGE,ESA,2012-10-12,FRGUI,,2165119,110435945,0 GALILEO-FM3,1 38857U 12055A   17074.40269226 -.00000011 +00000-0 +00000-0 0  9997,2 38857 054.9127 194.6276 0003181 223.1904 136.7564 01.70473739027529
